start=new Date('2021-10-21T00:00:00.000Z').valueOf();
sats=[{"CENTER_NAME":"EARTH","PERIOD":"95.106","MEAN_MOTION":"15.14105649","OBJECT_ID":"2021-027BD","REF_FRAME":"TEME","TLE_LINE2":"2 48143  53.0497  91.7628 0002093 140.6752 219.4392 15.14105649 32069","INCLINATION":"53.0497","DECAY_DATE":null,"COUNTRY_CODE":"US","MEAN_MOTION_DOT":"-0.00339191","EPHEMERIS_TYPE":"0","GP_ID":"187756274","PERIAPSIS":"522.253","SEMIMAJOR_AXIS":"6901.832","ARG_OF_PERICENTER":"140.6752","SITE":"AFETR","REV_AT_EPOCH":"3206","CLASSIFICATION_TYPE":"U","RA_OF_ASC_NODE":"91.7628","LAUNCH_DATE":"2021-04-07","TIME_SYSTEM":"UTC","RCS_SIZE":"LARGE","BSTAR":"-0.01927400000000","TLE_LINE1":"1 48143U 21027BD  21293.88295355 -.00339191  00000-0 -19274-1 0  9996","MEAN_ANOMALY":"219.4392","EPOCH":"2021-10-20T21:11:27.186720","OBJECT_NAME":"STARLINK-2486","APOAPSIS":"525.142","ECCENTRICITY":"0.00020930","MEAN_MOTION_DDOT":"0.0000000000000","ELEMENT_SET_NO":"999","FILE":"3175135","MEAN_ELEMENT_THEORY":"SGP4","NORAD_CAT_ID":"48143","OBJECT_TYPE":"PAYLOAD"},{"COUNTRY_CODE":"US","MEAN_MOTION_DOT":"0.00001274","PERIAPSIS":"545.817","EPHEMERIS_TYPE":"0","GP_ID":"187756524","SEMIMAJOR_AXIS":"6925.320","ARG_OF_PERICENTER":"77.1555","PERIOD":"95.592","CENTER_NAME":"EARTH","MEAN_MOTION":"15.06409155","OBJECT_ID":"2021-027BE","TLE_LINE2":"2 48144  53.0556 137.8806 0001976  77.1555 282.9655 15.06409155 31415","REF_FRAME":"TEME","DECAY_DATE":null,"INCLINATION":"53.0556","OBJECT_NAME":"STARLINK-2487","APOAPSIS":"548.554","EPOCH":"2021-10-20T21:24:15.921216","ELEMENT_SET_NO":"999","ECCENTRICITY":"0.00019760","MEAN_MOTION_DDOT":"0.0000000000000","FILE":"3175135","MEAN_ELEMENT_THEORY":"SGP4","OBJECT_TYPE":"PAYLOAD","NORAD_CAT_ID":"48144","SITE":"AFETR","REV_AT_EPOCH":"3141","CLASSIFICATION_TYPE":"U","TIME_SYSTEM":"UTC","LAUNCH_DATE":"2021-04-07","RA_OF_ASC_NODE":"137.8806","RCS_SIZE":"LARGE","BSTAR":"0.00010443000000","TLE_LINE1":"1 48144U 21027BE  21293.89185094  .00001274  00000-0  10443-3 0  9993","MEAN_ANOMALY":"282.9655"},{"TLE_LINE1":"1 48145U 21027BF  21293.89552025  .00000759  00000-0  69830-4 0  9998","MEAN_ANOMALY":"281.2481","RCS_SIZE":"LARGE","BSTAR":"0.00006983000000","RA_OF_ASC_NODE":"137.8515","LAUNCH_DATE":"2021-04-07","TIME_SYSTEM":"UTC","SITE":"AFETR","CLASSIFICATION_TYPE":"U","REV_AT_EPOCH":"3142","NORAD_CAT_ID":"48145","OBJECT_TYPE":"PAYLOAD","FILE":"3175135","MEAN_ELEMENT_THEORY":"SGP4","EPOCH":"2021-10-20T21:29:32.949600","APOAPSIS":"548.563","OBJECT_NAME":"STARLINK-2488","MEAN_MOTION_DDOT":"0.0000000000000","ECCENTRICITY":"0.00019890","ELEMENT_SET_NO":"999","REF_FRAME":"TEME","TLE_LINE2":"2 48145  53.0545 137.8515 0001989  78.8731 281.2481 15.06409152 31426","INCLINATION":"53.0545","DECAY_DATE":null,"MEAN_MOTION":"15.06409152","OBJECT_ID":"2021-027BF","PERIOD":"95.592","CENTER_NAME":"EARTH","ARG_OF_PERICENTER":"78.8731","SEMIMAJOR_AXIS":"6925.321","GP_ID":"187756775","EPHEMERIS_TYPE":"0","PERIAPSIS":"545.808","COUNTRY_CODE":"US","MEAN_MOTION_DOT":"0.00000759"},{"TIME_SYSTEM":"UTC","LAUNCH_DATE":"2021-04-07","RA_OF_ASC_NODE":"157.8622","REV_AT_EPOCH":"3114","CLASSIFICATION_TYPE":"U","SITE":"AFETR","MEAN_ANOMALY":"294.5859","TLE_LINE1":"1 48146U 21027BG  21293.89368230 -.00001716  00000-0 -96314-4 0  9995","BSTAR":"-0.00009631400000","RCS_SIZE":"LARGE","ELEMENT_SET_NO":"999","ECCENTRICITY":"0.00019350","MEAN_MOTION_DDOT":"0.0000000000000","APOAPSIS":"548.582","OBJECT_NAME":"STARLINK-2489","EPOCH":"2021-10-20T21:26:54.150720","OBJECT_TYPE":"PAYLOAD","NORAD_CAT_ID":"48146","MEAN_ELEMENT_THEORY":"SGP4","FILE":"3175135","OBJECT_ID":"2021-027BG","MEAN_MOTION":"15.06390739","CENTER_NAME":"EARTH","PERIOD":"95.593","DECAY_DATE":null,"INCLINATION":"53.0541","TLE_LINE2":"2 48146  53.0541 157.8622 0001935  65.5331 294.5859 15.06390739 31149","REF_FRAME":"TEME","PERIAPSIS":"545.902","GP_ID":"187757015","EPHEMERIS_TYPE":"0","MEAN_MOTION_DOT":"-0.00001716","COUNTRY_CODE":"US","ARG_OF_PERICENTER":"65.5331","SEMIMAJOR_AXIS":"6925.377"},{"OBJECT_ID":"2021-027BH","MEAN_MOTION":"15.06396322","PERIOD":"95.592","CENTER_NAME":"EARTH","DECAY_DATE":null,"INCLINATION":"53.0534","TLE_LINE2":"2 48147  53.0534 162.7568 0001805  66.6195 293.4983 15.06396322 31074","REF_FRAME":"TEME","PERIAPSIS":"545.975","GP_ID":"187755774","EPHEMERIS_TYPE":"0","MEAN_MOTION_DOT":"-0.00000633","COUNTRY_CODE":"US","ARG_OF_PERICENTER":"66.6195","SEMIMAJOR_AXIS":"6925.360","TIME_SYSTEM":"UTC","LAUNCH_DATE":"2021-04-07","RA_OF_ASC_NODE":"162.7568","REV_AT_EPOCH":"3107","CLASSIFICATION_TYPE":"U","SITE":"AFETR","MEAN_ANOMALY":"293.4983","TLE_LINE1":"1 48147U 21027BH  21293.89137808 -.00000633  00000-0 -23618-4 0  9995","BSTAR":"-0.00002361800000","RCS_SIZE":"LARGE","ELEMENT_SET_NO":"999","MEAN_MOTION_DDOT":"0.0000000000000","ECCENTRICITY":"0.00018050","APOAPSIS":"548.475","OBJECT_NAME":"STARLINK-2490","EPOCH":"2021-10-20T21:23:35.066112","OBJECT_TYPE":"PAYLOAD","NORAD_CAT_ID":"48147","MEAN_ELEMENT_THEORY":"SGP4","FILE":"3175135"},{"MEAN_MOTION_DOT":"-0.00001959","COUNTRY_CODE":"US","PERIAPSIS":"546.030","GP_ID":"187756024","EPHEMERIS_TYPE":"0","SEMIMAJOR_AXIS":"6925.363","ARG_OF_PERICENTER":"71.9419","CENTER_NAME":"EARTH","PERIOD":"95.592","OBJECT_ID":"2021-027BJ","MEAN_MOTION":"15.06395402","DECAY_DATE":null,"INCLINATION":"53.0566","TLE_LINE2":"2 48148  53.0566 158.0241 0001729  71.9419 288.1758 15.06395402 31124","REF_FRAME":"TEME","ELEMENT_SET_NO":"999","ECCENTRICITY":"0.00017290","MEAN_MOTION_DDOT":"0.0000000000000","APOAPSIS":"548.425","OBJECT_NAME":"STARLINK-2491","EPOCH":"2021-10-20T20:39:08.824320","MEAN_ELEMENT_THEORY":"SGP4","FILE":"3175135","OBJECT_TYPE":"PAYLOAD","NORAD_CAT_ID":"48148","CLASSIFICATION_TYPE":"U","REV_AT_EPOCH":"3112","SITE":"AFETR","TIME_SYSTEM":"UTC","RA_OF_ASC_NODE":"158.0241","LAUNCH_DATE":"2021-04-07","BSTAR":"-0.00011264000000","RCS_SIZE":"LARGE","MEAN_ANOMALY":"288.1758","TLE_LINE1":"1 48148U 21027BJ  21293.86051880 -.00001959  00000-0 -11264-3 0  9993"},{"OBJECT_NAME":"STARLINK-2492","APOAPSIS":"548.429","EPOCH":"2021-10-20T20:57:43.114752","ELEMENT_SET_NO":"999","MEAN_MOTION_DDOT":"0.0000000000000","ECCENTRICITY":"0.00017110","OBJECT_TYPE":"PAYLOAD","NORAD_CAT_ID":"48149","FILE":"3175135","MEAN_ELEMENT_THEORY":"SGP4","TIME_SYSTEM":"UTC","RA_OF_ASC_NODE":"137.9774","LAUNCH_DATE":"2021-04-07","SITE":"AFETR","CLASSIFICATION_TYPE":"U","REV_AT_EPOCH":"3141","TLE_LINE1":"1 48149U 21027BK  21293.87341568 -.00002272  00000-0 -13369-3 0  9997","MEAN_ANOMALY":"281.5728","RCS_SIZE":"LARGE","BSTAR":"-0.00013369000000","PERIAPSIS":"546.059","GP_ID":"187757276","EPHEMERIS_TYPE":"0","COUNTRY_CODE":"US","MEAN_MOTION_DOT":"-0.00002272","ARG_OF_PERICENTER":"78.5453","SEMIMAJOR_AXIS":"6925.379","MEAN_MOTION":"15.06390105","OBJECT_ID":"2021-027BK","CENTER_NAME":"EARTH","PERIOD":"95.593","TLE_LINE2":"2 48149  53.0477 137.9774 0001711  78.5453 281.5728 15.06390105 31416","REF_FRAME":"TEME","DECAY_DATE":null,"INCLINATION":"53.0477"},{"EPOCH":"2021-10-20T21:03:01.468512","APOAPSIS":"548.302","OBJECT_NAME":"STARLINK-2493","ECCENTRICITY":"0.00015430","MEAN_MOTION_DDOT":"0.0000000000000","ELEMENT_SET_NO":"999","FILE":"3175135","MEAN_ELEMENT_THEORY":"SGP4","NORAD_CAT_ID":"48150","OBJECT_TYPE":"PAYLOAD","SITE":"AFETR","REV_AT_EPOCH":"3142","CLASSIFICATION_TYPE":"U","RA_OF_ASC_NODE":"137.9239","LAUNCH_DATE":"2021-04-07","TIME_SYSTEM":"UTC","RCS_SIZE":"LARGE","BSTAR":"-0.00011947000000","TLE_LINE1":"1 48150U 21027BL  21293.87710033 -.00002060  00000-0 -11947-3 0  9991","MEAN_ANOMALY":"284.6109","COUNTRY_CODE":"US","MEAN_MOTION_DOT":"-0.00002060","GP_ID":"187757516","EPHEMERIS_TYPE":"0","PERIAPSIS":"546.164","SEMIMAJOR_AXIS":"6925.368","ARG_OF_PERICENTER":"75.5051","CENTER_NAME":"EARTH","PERIOD":"95.593","MEAN_MOTION":"15.06393668","OBJECT_ID":"2021-027BL","REF_FRAME":"TEME","TLE_LINE2":"2 48150  53.0624 137.9239 0001543  75.5051 284.6109 15.06393668 31427","INCLINATION":"53.0624","DECAY_DATE":null},{"LAUNCH_DATE":"2021-04-07","RA_OF_ASC_NODE":"137.9150","TIME_SYSTEM":"UTC","SITE":"AFETR","CLASSIFICATION_TYPE":"U","REV_AT_EPOCH":"3142","TLE_LINE1":"1 48151U 21027BM  21293.88078569 -.00000732  00000-0 -30256-4 0  9993","MEAN_ANOMALY":"280.8406","RCS_SIZE":"LARGE","BSTAR":"-0.00003025600000","EPOCH":"2021-10-20T21:08:19.883616","OBJECT_NAME":"STARLINK-2503","APOAPSIS":"548.468","MEAN_MOTION_DDOT":"0.0000000000000","ECCENTRICITY":"0.00018090","ELEMENT_SET_NO":"999","NORAD_CAT_ID":"48151","OBJECT_TYPE":"PAYLOAD","FILE":"3175135","MEAN_ELEMENT_THEORY":"SGP4","MEAN_MOTION":"15.06399609","OBJECT_ID":"2021-027BM","PERIOD":"95.592","CENTER_NAME":"EARTH","REF_FRAME":"TEME","TLE_LINE2":"2 48151  53.0592 137.9150 0001809  79.2787 280.8406 15.06399609 31425","INCLINATION":"53.0592","DECAY_DATE":null,"GP_ID":"187756275","EPHEMERIS_TYPE":"0","PERIAPSIS":"545.962","COUNTRY_CODE":"US","MEAN_MOTION_DOT":"-0.00000732","ARG_OF_PERICENTER":"79.2787","SEMIMAJOR_AXIS":"6925.350"},{"SEMIMAJOR_AXIS":"6925.377","ARG_OF_PERICENTER":"72.3789","MEAN_MOTION_DOT":"-0.00035517","COUNTRY_CODE":"US","PERIAPSIS":"546.211","EPHEMERIS_TYPE":"0","GP_ID":"187718033","DECAY_DATE":null,"INCLINATION":"53.0544","TLE_LINE2":"2 48276  53.0544  32.7559 0001488  72.3789 260.0100 15.06390777 28114","REF_FRAME":"TEME","PERIOD":"95.593","CENTER_NAME":"EARTH","OBJECT_ID":"2021-036A","MEAN_MOTION":"15.06390777","MEAN_ELEMENT_THEORY":"SGP4","FILE":"3174424","OBJECT_TYPE":"PAYLOAD","NORAD_CAT_ID":"48276","ELEMENT_SET_NO":"999","MEAN_MOTION_DDOT":"0.0000000000000","ECCENTRICITY":"0.00014880","APOAPSIS":"548.272","OBJECT_NAME":"STARLINK-2567","EPOCH":"2021-10-20T22:00:00.999936","BSTAR":"-0.00237800000000","RCS_SIZE":"LARGE","MEAN_ANOMALY":"260.0100","TLE_LINE1":"1 48276U 21036A   21293.91667824 -.00035517  00000-0 -23780-2 0  9994","CLASSIFICATION_TYPE":"U","REV_AT_EPOCH":"2811","SITE":"AFETR","TIME_SYSTEM":"UTC","LAUNCH_DATE":"2021-04-29","RA_OF_ASC_NODE":"32.7559"}];
